S-NET A                 
1 43188U 18014J   26068.73984809  .00007428  00000+0  39378-3 0  9991
2 43188  97.5446 334.3608 0009236  10.8145 349.3285 15.15637105443691
OTTER                   
1 66680U 25276Q   26068.72634339  .00007104  00000+0  35224-3 0  9997
2 66680  97.4276 143.8857 0005472   0.7152 359.4088 15.18022658 15317
